OBJECT_NAME,OBJECT_ID,EPOCH,MEAN_MOTION,ECCENTRICITY,INCLINATION,RA_OF_ASC_NODE,ARG_OF_PERICENTER,MEAN_ANOMALY,EPHEMERIS_TYPE,CLASSIFICATION_TYPE,NORAD_CAT_ID,ELEMENT_SET_NO,REV_AT_EPOCH,BSTAR,MEAN_MOTION_DOT,MEAN_MOTION_DDOT
SIRION PATHFINDER-2,2018-099B,2026-05-11T21:44:40.799328,15.14209034,.00102935,97.4283,181.8299,70.8991,289.3355,0,U,43759,999,40713,.15756717E-3,.2815E-4,0
CORVUS BC4,2018-099K,2026-05-11T01:40:24.348000,15.12188428,.00098008,97.4100,175.1397,124.1393,236.0769,0,U,43767,999,40679,.18852185E-3,.3194E-4,0
M2 PATHFINDER,2020-037E,2026-05-11T06:28:13.960992,15.04513075,.00102455,97.8165,322.0884,278.8246,81.1820,0,U,45727,999,31994,.13878096E-3,.1881E-4,0
NETSAT-4,2020-068U,2026-05-11T05:30:48.955392,15.42631433,.00076761,97.8621,136.5388,95.0170,265.1952,0,U,46504,999,31007,.27495893E-3,.11889E-3,0
NETSAT-3,2020-068V,2026-05-11T22:06:21.958272,15.41417310,.00075216,97.8668,135.5486,105.8095,254.3981,0,U,46505,999,31009,.27657427E-3,.11482E-3,0
NETSAT-1,2020-068W,2026-05-11T11:30:39.807360,15.33739661,.00067007,97.8754,129.8268,125.9205,234.2659,0,U,46506,999,30967,.24889813E-3,.8038E-4,0
NETSAT-2,2020-068X,2026-05-11T18:28:43.000896,15.44440259,.00061935,97.8635,136.8936,114.1091,246.0805,0,U,46507,999,31011,.31480897E-3,.14483E-3,0
GREENCUBE (IO-117),2022-080E,2026-05-11T10:53:54.781728,6.42583318,.00088758,70.1441,311.0256,298.1354,61.8409,0,U,53109,999,8970,0,-.3E-7,0
SITRO-AIS 5 (KATYS),2023-091L,2026-05-11T22:40:24.951936,15.28610494,.00106385,97.5083,195.5203,223.6599,136.3800,0,U,57176,999,15880,.25046366E-3,.6904E-4,0
SITRO-AIS 6 (CHIRKIN),2023-091AC,2026-05-11T21:46:50.905632,15.25242688,.00108021,97.5090,194.7896,227.5220,132.5105,0,U,57192,999,15875,.14499968E-3,.3575E-4,0
SITRO-AIS 8 (ANOKHIN),2023-091AD,2026-05-11T21:25:16.160160,15.31142325,.00099426,97.5078,196.9135,218.9790,141.0735,0,U,57193,999,15889,.26643543E-3,.7948E-4,0
SITRO-AIS 7 (FARTUSHNIY),2023-091AE,2026-05-11T21:41:00.071520,15.24948802,.00106087,97.5088,194.6287,228.7710,131.2614,0,U,57194,999,15874,.13867353E-3,.3385E-4,0
SITRO-AIS 10 (BURDAEV),2023-091AK,2026-05-11T22:36:13.343040,15.37228456,.00069475,97.5099,201.6560,189.5194,170.5920,0,U,57199,999,15919,.32910249E-3,.11929E-3,0
SITRO-AIS 9 (SHCHUKIN),2023-091AM,2026-05-11T21:24:37.921248,15.36773804,.00071445,97.5097,201.3624,190.5520,169.5576,0,U,57201,999,15917,.33446578E-3,.11948E-3,0
SITRO-AIS 12 (SMIRENNIY),2023-091AQ,2026-05-11T21:20:52.996992,15.37058074,.00069639,97.5109,201.8045,184.4019,175.7165,0,U,57204,999,15919,.33879998E-3,.12216E-3,0
SITRO-AIS 11 (SHEFFER),2023-091AU,2026-05-11T21:54:03.121632,15.37449640,.00068737,97.5107,202.0527,184.0415,176.0775,0,U,57208,999,15921,.3200363E-3,.11681E-3,0
SITRO-AIS 25,2024-039R,2026-05-11T22:12:59.572800,14.93254772,.01475139,95.3921,210.1786,94.8872,266.9214,0,U,59066,999,11931,.21807976E-3,.2793E-4,0
SITRO-AIS 26,2024-039S,2026-05-11T22:07:57.059616,14.93057906,.01478588,95.3925,210.0812,95.4252,266.3861,0,U,59067,999,11930,.22423281E-3,.286E-4,0
SITRO-AIS 27,2024-039T,2026-05-11T23:16:05.825568,14.93468843,.01470194,95.3922,210.3686,93.9955,267.8091,0,U,59068,999,11933,.27715744E-3,.3575E-4,0
SITRO-AIS 28,2024-039U,2026-05-11T22:44:48.795072,14.93502148,.01467739,95.3920,210.3991,93.9296,267.8723,0,U,59071,999,11933,.24227224E-3,.3122E-4,0
GRBBETA,2024-128C,2026-05-11T21:54:31.192128,15.06335740,.0045404,61.9909,343.5060,127.1654,233.3599,0,U,60237,999,10080,.17746068E-3,.246E-4,0
OOV-CUBE (TUBSAT-30),2024-128F,2026-05-11T20:32:30.075360,15.02585018,.00490332,61.9951,352.2411,125.8384,234.7277,0,U,60240,999,10065,.12083009E-3,.1439E-4,0
ROBUSTA-3A (MEDITERRANEE),2024-128J,2026-05-11T21:06:02.031552,15.11096414,.004619,61.9874,336.5855,120.9521,239.6125,0,U,60243,999,10093,.28828547E-3,.4747E-4,0
LASARSAT,2024-247Q,2026-05-11T15:26:10.158432,15.44103362,.00045957,44.9739,107.1922,109.5737,250.5648,0,U,62391,999,7766,.44752778E-3,.2063E-3,0
CROCUBE,2024-247T,2026-05-11T22:34:00.924672,15.45699384,.00043392,44.9711,103.4005,113.8628,246.2717,0,U,62394,999,7773,.51081906E-3,.24948E-3,0
FORESAIL-1 PRIME,2025-276DS,2026-05-11T14:55:51.831552,15.18360338,.00016791,97.4208,205.5700,192.8130,167.3062,0,U,66778,999,2485,.15972154E-3,.3214E-4,0
KNACKSAT-2,1998-067XZ,2026-05-11T16:01:23.509344,15.56805390,.00125947,51.6279,117.7017,63.6305,296.5978,0,U,67683,999,1458,.37638351E-3,.27184E-3,0
